{
  "norad_id": 60258,
  "name": "STARLINK-32200",
  "history": [
    {
      "epoch": "2026-03-28T21:10:26.716224Z",
      "apogee_km": 475.826367781774,
      "perigee_km": 474.7769692528518,
      "latitude_deg": -2.4273447980646842e-06,
      "longitude_deg": 179.62135578419736,
      "height_km": 476.0197415720456,
      "semi_major_axis_km": 6853.438668517313,
      "eccentricity": 7.656e-05,
      "inclination_deg": 53.1609,
      "raan_deg": 323.529,
      "arg_perigee_deg": 69.8409,
      "mean_anomaly_deg": 290.2674,
      "mean_motion_rev_day": 15.30170997
    },
    {
      "epoch": "2026-03-29T04:00:01.999584Z",
      "apogee_km": 476.2823882188277,
      "perigee_km": 474.41686915849823,
      "latitude_deg": 39.264370992848946,
      "longitude_deg": -141.89764214436207,
      "height_km": 478.26417160997744,
      "semi_major_axis_km": 6853.486628688663,
      "eccentricity": 0.0001361,
      "inclination_deg": 53.1578,
      "raan_deg": 322.2108,
      "arg_perigee_deg": 71.7684,
      "mean_anomaly_deg": 56.1554,
      "mean_motion_rev_day": 15.30154935
    },
    {
      "epoch": "2026-03-30T01:23:21.642432Z",
      "apogee_km": 476.10361365854624,
      "perigee_km": 474.13809930530624,
      "latitude_deg": 2.6776352423036987e-05,
      "longitude_deg": 109.7750594301243,
      "height_km": 475.8931099013619,
      "semi_major_axis_km": 6853.257856481926,
      "eccentricity": 0.0001434,
      "inclination_deg": 53.1591,
      "raan_deg": 318.0703,
      "arg_perigee_deg": 82.6617,
      "mean_anomaly_deg": 277.4547,
      "mean_motion_rev_day": 15.30231554
    },
    {
      "epoch": "2026-03-30T01:23:21.643296Z",
      "apogee_km": 476.1036821911239,
      "perigee_km": 474.1380307727286,
      "latitude_deg": 2.5861340185660212e-05,
      "longitude_deg": 109.77505513852263,
      "height_km": 475.8931011479728,
      "semi_major_axis_km": 6853.257856481926,
      "eccentricity": 0.00014341,
      "inclination_deg": 53.1591,
      "raan_deg": 318.0703,
      "arg_perigee_deg": 82.6617,
      "mean_anomaly_deg": 277.4547,
      "mean_motion_rev_day": 15.30231554
    },
    {
      "epoch": "2026-03-30T21:46:03.421920Z",
      "apogee_km": 476.0401086546235,
      "perigee_km": 474.33486445588005,
      "latitude_deg": -7.215748026363442e-05,
      "longitude_deg": 159.3194996014527,
      "height_km": 476.02541774153883,
      "semi_major_axis_km": 6853.3244865552515,
      "eccentricity": 0.00012441,
      "inclination_deg": 53.1583,
      "raan_deg": 314.1258,
      "arg_perigee_deg": 85.9636,
      "mean_anomaly_deg": 274.1506,
      "mean_motion_rev_day": 15.30209238
    },
    {
      "epoch": "2026-03-31T20:00:01.999008Z",
      "apogee_km": 476.1168108144875,
      "perigee_km": 474.3472709281341,
      "latitude_deg": 47.147481914910436,
      "longitude_deg": -125.95694317872106,
      "height_km": 479.6294899969912,
      "semi_major_axis_km": 6853.36904087131,
      "eccentricity": 0.0001291,
      "inclination_deg": 53.1578,
      "raan_deg": 309.8235,
      "arg_perigee_deg": 95.2898,
      "mean_anomaly_deg": 330.7669,
      "mean_motion_rev_day": 15.30194316
    }
  ]
}